{
    "links": {
        "self": "http://www.neowsapp.com/rest/v1/neo/3360545?api_key=iIulBulltgU6a56xZRHN4H3l9WmuAYTsLGpBGhQ2"
    },
    "id": "3360545",
    "neo_reference_id": "3360545",
    "name": "(2006 WB30)",
    "designation": "2006 WB30",
    "nasa_jpl_url": "http://ssd.jpl.nasa.gov/sbdb.cgi?sstr=3360545",
    "absolute_magnitude_h": 25.9,
    "estimated_diameter": {
        "kilometers": {
            "estimated_diameter_min": 0.0175612318,
            "estimated_diameter_max": 0.0392681082
        },
        "meters": {
            "estimated_diameter_min": 17.561231848,
            "estimated_diameter_max": 39.2681081809
        },
        "miles": {
            "estimated_diameter_min": 0.0109120402,
            "estimated_diameter_max": 0.0244000636
        },
        "feet": {
            "estimated_diameter_min": 57.6155918963,
            "estimated_diameter_max": 128.8323800441
        }
    },
    "is_potentially_hazardous_asteroid": false,
    "close_approach_data": [
        {
            "close_approach_date": "2006-11-29",
            "close_approach_date_full": "2006-Nov-29 04:15",
            "epoch_date_close_approach": 1164773700000,
            "relative_velocity": {
                "kilometers_per_second": "4.2873572808",
                "kilometers_per_hour": "15434.4862108784",
                "miles_per_hour": "9590.3895014205"
            },
            "miss_distance": {
                "astronomical": "0.0650800618",
                "lunar": "25.3161440402",
                "kilometers": "9735838.624748366",
                "miles": "6049569.5991488108"
            },
            "orbiting_body": "Earth"
        }
    ],
    "orbital_data": {
        "orbit_id": "8",
        "orbit_determination_date": "2017-04-06 09:07:31",
        "first_observation_date": "2006-11-24",
        "last_observation_date": "2006-12-11",
        "data_arc_in_days": 17,
        "observations_used": 21,
        "orbit_uncertainty": "8",
        "minimum_orbit_intersection": ".0640613",
        "jupiter_tisserand_invariant": "4.202",
        "epoch_osculation": "2454067.5",
        "eccentricity": ".3632783864428505",
        "semi_major_axis": "1.649058809231734",
        "inclination": "3.652844009949806",
        "ascending_node_longitude": "70.60602284584232",
        "orbital_period": "773.486329899958",
        "perihelion_distance": "1.049991385864661",
        "perihelion_argument": "359.7838547793169",
        "aphelion_distance": "2.248126232598806",
        "perihelion_time": "2454071.527969455688",
        "mean_anomaly": "358.1252816656304",
        "mean_motion": ".4654251614848345",
        "equinox": "J2000",
        "orbit_class": {
            "orbit_class_type": "AMO",
            "orbit_class_description": "Near-Earth asteroid orbits similar to that of 1221 Amor",
            "orbit_class_range": "1.017 AU < q (perihelion) < 1.3 AU"
        }
    },
    "is_sentry_object": false
}